{
  "type": "FeatureCollection",
  "features": [
    {
      "type": "Feature",
      "properties": {
        "norad_id": 66856,
        "name": "STARLINK-36072",
        "group": "last-30-days",
        "lat": 8.337497613086452,
        "lon": -89.61501710478959,
        "alt_km": 326.1509577729139,
        "timestamp": "2025-12-16T10:53:44.206862+00:00",
        "meta_object_name": "STARLINK-36072",
        "meta_object_id": "2025-281J",
        "meta_epoch": "2025-12-15T22:00:01.999584",
        "meta_mean_motion": 15.82761882,
        "meta_eccentricity": 0.00020753,
        "meta_inclination": 43.0005,
        "meta_ra_of_asc_node": 102.7277,
        "meta_arg_of_pericenter": 277.3383,
        "meta_mean_anomaly": 66.5409,
        "meta_ephemeris_type": 0,
        "meta_classification_type": "U",
        "meta_norad_cat_id": 66856,
        "meta_element_set_no": 999,
        "meta_rev_at_epoch": 191,
        "meta_bstar": -0.0065893936,
        "meta_mean_motion_dot": -0.01269706,
        "meta_mean_motion_ddot": 0,
        "tle_line1": "1 66856U 25281J   25349.91668981 -.01269706  00000+0 -65894-2 0  9996",
        "tle_line2": "2 66856  43.0005 102.7277 0002075 277.3383  66.5409 15.82761882  1917"
      },
      "geometry": {
        "type": "Point",
        "coordinates": [
          -89.61501710478959,
          8.337497613086452
        ]
      }
    },
    {
      "type": "Feature",
      "properties": {
        "norad_id": 66857,
        "name": "STARLINK-36083",
        "group": "last-30-days",
        "lat": 6.722546993830955,
        "lon": -87.8393134493645,
        "alt_km": 326.5540002189009,
        "timestamp": "2025-12-16T10:53:44.206872+00:00",
        "meta_object_name": "STARLINK-36083",
        "meta_object_id": "2025-281K",
        "meta_epoch": "2025-12-15T22:00:01.999584",
        "meta_mean_motion": 15.82795536,
        "meta_eccentricity": 0.00017184,
        "meta_inclination": 43.0003,
        "meta_ra_of_asc_node": 102.7218,
        "meta_arg_of_pericenter": 282.3113,
        "meta_mean_anomaly": 63.9893,
        "meta_ephemeris_type": 0,
        "meta_classification_type": "U",
        "meta_norad_cat_id": 66857,
        "meta_element_set_no": 999,
        "meta_rev_at_epoch": 191,
        "meta_bstar": -0.007035721,
        "meta_mean_motion_dot": -0.01346558,
        "meta_mean_motion_ddot": 0,
        "tle_line1": "1 66857U 25281K   25349.91668981 -.01346558  00000+0 -70357-2 0  9998",
        "tle_line2": "2 66857  43.0003 102.7218 0001718 282.3113  63.9893 15.82795536  1912"
      },
      "geometry": {
        "type": "Point",
        "coordinates": [
          -87.8393134493645,
          6.722546993830955
        ]
      }
    },
    {
      "type": "Feature",
      "properties": {
        "norad_id": 66858,
        "name": "STARLINK-35118",
        "group": "last-30-days",
        "lat": 5.049946263987273,
        "lon": -86.02034909897168,
        "alt_km": 326.8381060647662,
        "timestamp": "2025-12-16T10:53:44.206882+00:00",
        "meta_object_name": "STARLINK-35118",
        "meta_object_id": "2025-281L",
        "meta_epoch": "2025-12-15T22:00:01.999584",
        "meta_mean_motion": 15.82758043,
        "meta_eccentricity": 0.00017831,
        "meta_inclination": 43.0007,
        "meta_ra_of_asc_node": 102.715,
        "meta_arg_of_pericenter": 279.917,
        "meta_mean_anomaly": 68.9401,
        "meta_ephemeris_type": 0,
        "meta_classification_type": "U",
        "meta_norad_cat_id": 66858,
        "meta_element_set_no": 999,
        "meta_rev_at_epoch": 170,
        "meta_bstar": -0.0071132392,
        "meta_mean_motion_dot": -0.01357423,
        "meta_mean_motion_ddot": 0,
        "tle_line1": "1 66858U 25281L   25349.91668981 -.01357423  00000+0 -71132-2 0  9994",
        "tle_line2": "2 66858  43.0007 102.7150 0001783 279.9170  68.9401 15.82758043  1708"
      },
      "geometry": {
        "type": "Point",
        "coordinates": [
          -86.02034909897168,
          5.049946263987273
        ]
      }
    },
    {
      "type": "Feature",
      "properties": {
        "norad_id": 66859,
        "name": "STARLINK-35646",
        "group": "last-30-days",
        "lat": 3.254660909798966,
        "lon": -84.08394542011027,
        "alt_km": 327.27617732692397,
        "timestamp": "2025-12-16T10:53:44.206892+00:00",
        "meta_object_name": "STARLINK-35646",
        "meta_object_id": "2025-281M",
        "meta_epoch": "2025-12-15T22:00:01.999584",
        "meta_mean_motion": 15.82695786,
        "meta_eccentricity": 0.00018006,
        "meta_inclination": 43.0006,
        "meta_ra_of_asc_node": 102.7082,
        "meta_arg_of_pericenter": 281.5662,
        "meta_mean_anomaly": 70.0624,
        "meta_ephemeris_type": 0,
        "meta_classification_type": "U",
        "meta_norad_cat_id": 66859,
        "meta_element_set_no": 999,
        "meta_rev_at_epoch": 191,
        "meta_bstar": -0.0071785568,
        "meta_mean_motion_dot": -0.01391212,
        "meta_mean_motion_ddot": 0,
        "tle_line1": "1 66859U 25281M   25349.91668981 -.01391212  00000+0 -71786-2 0  9994",
        "tle_line2": "2 66859  43.0006 102.7082 0001800 281.5662  70.0624 15.82695786  1915"
      },
      "geometry": {
        "type": "Point",
        "coordinates": [
          -84.08394542011027,
          3.254660909798966
        ]
      }
    },
    {
      "type": "Feature",
      "properties": {
        "norad_id": 66860,
        "name": "STARLINK-35987",
        "group": "last-30-days",
        "lat": -5.817870735187706,
        "lon": -74.34162053225627,
        "alt_km": 328.9127016277698,
        "timestamp": "2025-12-16T10:53:44.206903+00:00",
        "meta_object_name": "STARLINK-35987",
        "meta_object_id": "2025-281N",
        "meta_epoch": "2025-12-15T22:00:01.999584",
        "meta_mean_motion": 15.8237491,
        "meta_eccentricity": 0.0001794,
        "meta_inclination": 43.0005,
        "meta_ra_of_asc_node": 102.6727,
        "meta_arg_of_pericenter": 271.7216,
        "meta_mean_anomaly": 93.9239,
        "meta_ephemeris_type": 0,
        "meta_classification_type": "U",
        "meta_norad_cat_id": 66860,
        "meta_element_set_no": 999,
        "meta_rev_at_epoch": 191,
        "meta_bstar": -0.0075966016,
        "meta_mean_motion_dot": -0.014433,
        "meta_mean_motion_ddot": 0,
        "tle_line1": "1 66860U 25281N   25349.91668981 -.01443300  00000+0 -75966-2 0  9996",
        "tle_line2": "2 66860  43.0005 102.6727 0001794 271.7216  93.9239 15.82374910  1918"
      },
      "geometry": {
        "type": "Point",
        "coordinates": [
          -74.34162053225627,
          -5.817870735187706
        ]
      }
    },
    {
      "type": "Feature",
      "properties": {
        "norad_id": 66861,
        "name": "STARLINK-35991",
        "group": "last-30-days",
        "lat": -0.37626961452304564,
        "lon": -80.19494559814115,
        "alt_km": 327.85269395671094,
        "timestamp": "2025-12-16T10:53:44.206913+00:00",
        "meta_object_name": "STARLINK-35991",
        "meta_object_id": "2025-281P",
        "meta_epoch": "2025-12-15T22:00:01.999584",
        "meta_mean_motion": 15.825711,
        "meta_eccentricity": 0.00016609,
        "meta_inclination": 43.0007,
        "meta_ra_of_asc_node": 102.6941,
        "meta_arg_of_pericenter": 274.7783,
        "meta_mean_anomaly": 82.4465,
        "meta_ephemeris_type": 0,
        "meta_classification_type": "U",
        "meta_norad_cat_id": 66861,
        "meta_element_set_no": 999,
        "meta_rev_at_epoch": 191,
        "meta_bstar": -0.0073439928,
        "meta_mean_motion_dot": -0.01412151,
        "meta_mean_motion_ddot": 0,
        "tle_line1": "1 66861U 25281P   25349.91668981 -.01412151  00000+0 -73440-2 0  9992",
        "tle_line2": "2 66861  43.0007 102.6941 0001660 274.7783  82.4465 15.82571100  1917"
      },
      "geometry": {
        "type": "Point",
        "coordinates": [
          -80.19494559814115,
          -0.37626961452304564
        ]
      }
    },
    {
      "type": "Feature",
      "properties": {
        "norad_id": 66862,
        "name": "STARLINK-35974",
        "group": "last-30-days",
        "lat": 1.3730766652468367,
        "lon": -82.06607256936874,
        "alt_km": 327.600347149365,
        "timestamp": "2025-12-16T10:53:44.206925+00:00",
        "meta_object_name": "STARLINK-35974",
        "meta_object_id": "2025-281Q",
        "meta_epoch": "2025-12-15T22:00:01.999584",
        "meta_mean_motion": 15.82622702,
        "meta_eccentricity": 0.00018157,
        "meta_inclination": 43.0006,
        "meta_ra_of_asc_node": 102.701,
        "meta_arg_of_pericenter": 277.6173,
        "meta_mean_anomaly": 76.9295,
        "meta_ephemeris_type": 0,
        "meta_classification_type": "U",
        "meta_norad_cat_id": 66862,
        "meta_element_set_no": 999,
        "meta_rev_at_epoch": 181,
        "meta_bstar": -0.0072641608,
        "meta_mean_motion_dot": -0.01401643,
        "meta_mean_motion_ddot": 0,
        "tle_line1": "1 66862U 25281Q   25349.91668981 -.01401643  00000+0 -72642-2 0  9990",
        "tle_line2": "2 66862  43.0006 102.7010 0001815 277.6173  76.9295 15.82622702  1815"
      },
      "geometry": {
        "type": "Point",
        "coordinates": [
          -82.06607256936874,
          1.3730766652468367
        ]
      }
    }
  ]
}